TIANMU-1 21             
1 58662U 23208C   26172.48460245  .00007912  00000+0  23428-3 0  9993
2 58662  97.4507 292.1457 0005737 305.0266  55.0438 15.35141113138221
TIANMU-1 22             
1 58663U 23208D   26172.51689759  .00005940  00000+0  20026-3 0  9991
2 58663  97.4501 288.7713 0002791 346.8495  13.2672 15.31108395137996
TIANMU-1 15             
1 58700U 24004A   26172.55454425  .00004449  00000+0  17035-3 0  9991
2 58700  97.4674 358.7457 0006262 346.3791  13.7278 15.27060875136444
TIANMU-1 16             
1 58701U 24004B   26172.54456803  .00004530  00000+0  17484-3 0  9992
2 58701  97.4622 357.9677 0005379 352.3663   7.7493 15.26785843136446
TIANMU-1 17             
1 58702U 24004C   26172.53002447  .00004662  00000+0  17987-3 0  9997
2 58702  97.4648 358.4398 0005070 359.4602   0.6630 15.26784809136435
TIANMU-1 18             
1 58703U 24004D   26172.50568463  .00004179  00000+0  16032-3 0  9993
2 58703  97.4666 358.6735 0003609   0.4275 359.6966 15.27041126136436
INSAT-3DS               
1 58990U 24033A   26171.40823205 -.00000160  00000+0  00000+0 0  9990
2 58990   0.0479 106.3313 0001171 331.3573  59.9873  1.00271082 47109
METEOR-M2 4             
1 59051U 24039A   26172.54463940  .00000004  00000+0  21415-4 0  9991
2 59051  98.7012 131.7880 0007535 149.0442 211.1182 14.22429890119885
GOES 19                 
1 60133U 24119A   26171.37127980 -.00000253  00000+0  00000+0 0  9993
2 60133   0.0015 112.2371 0000407  49.5773 165.2311  1.00270517  6990
MTG-S1                  
1 64723U 25143A   26171.39155049 -.00000005  00000+0  00000+0 0  9994
2 64723   0.6001 339.7327 0000829 294.1194 133.2187  1.00399694  3452
METOP-SGA1              
1 65159U 25172A   26167.15332899  .00000049  00000+0  42000-4 0  9997
2 65159  98.6644 226.8998 0000902  93.8213 266.3067 14.21509720 43644
FENGYUN 3H              
1 65815U 25219A   26171.42343481  .00000033  00000+0  36111-4 0  9991
2 65815  98.6768 112.1297 0001572  74.5092 285.6258 14.19920896 37843
